CCSDS_OMM_VERS = 2.0
CREATION_DATE  = 
ORIGINATOR     = 

OBJECT_NAME    = SL-16 R/B
OBJECT_ID      = 1998-043G
CENTER_NAME    = EARTH
REF_FRAME      = TEME
TIME_SYSTEM    = UTC
MEAN_ELEMENT_THEORY = SGP/SGP4

EPOCH          = 2026-01-13T02:12:05.313024
MEAN_MOTION    = 14.26034224
ECCENTRICITY   = .0009929
INCLINATION    = 98.8166
RA_OF_ASC_NODE = 326.0923
ARG_OF_PERICENTER = 169.6544
MEAN_ANOMALY   = 190.4841

EPHEMERIS_TYPE = 0
CLASSIFICATION_TYPE = U
NORAD_CAT_ID   = 25400
ELEMENT_SET_NO = 999
REV_AT_EPOCH   = 43106
BSTAR          = .37938E-4
MEAN_MOTION_DOT = .45E-6
MEAN_MOTION_DDOT = 0

CCSDS_OMM_VERS = 2.0
CREATION_DATE  = 
ORIGINATOR     = 

OBJECT_NAME    = SL-16 R/B
OBJECT_ID      = 1998-045B
CENTER_NAME    = EARTH
REF_FRAME      = TEME
TIME_SYSTEM    = UTC
MEAN_ELEMENT_THEORY = SGP/SGP4

EPOCH          = 2026-01-13T03:01:33.013056
MEAN_MOTION    = 14.16180001
ECCENTRICITY   = .0005331
INCLINATION    = 71.0120
RA_OF_ASC_NODE = 298.4224
ARG_OF_PERICENTER = 119.6087
MEAN_ANOMALY   = 240.5568

EPHEMERIS_TYPE = 0
CLASSIFICATION_TYPE = U
NORAD_CAT_ID   = 25407
ELEMENT_SET_NO = 999
REV_AT_EPOCH   = 41923
BSTAR          = .1077E-4
MEAN_MOTION_DOT = -.26E-6
MEAN_MOTION_DDOT = 0

CCSDS_OMM_VERS = 2.0
CREATION_DATE  = 
ORIGINATOR     = 

OBJECT_NAME    = ISS (ZARYA)
OBJECT_ID      = 1998-067A
CENTER_NAME    = EARTH
REF_FRAME      = TEME
TIME_SYSTEM    = UTC
MEAN_ELEMENT_THEORY = SGP/SGP4

EPOCH          = 2026-01-12T22:49:23.132352
MEAN_MOTION    = 15.49263082
ECCENTRICITY   = .0007716
INCLINATION    = 51.6330
RA_OF_ASC_NODE = 347.9568
ARG_OF_PERICENTER = 11.8640
MEAN_ANOMALY   = 348.2529

EPHEMERIS_TYPE = 0
CLASSIFICATION_TYPE = U
NORAD_CAT_ID   = 25544
ELEMENT_SET_NO = 999
REV_AT_EPOCH   = 54769
BSTAR          = .14125E-3
MEAN_MOTION_DOT = .7414E-4
MEAN_MOTION_DDOT = 0

CCSDS_OMM_VERS = 2.0
CREATION_DATE  = 
ORIGINATOR     = 

OBJECT_NAME    = CZ-4B R/B
OBJECT_ID      = 1999-025C
CENTER_NAME    = EARTH
REF_FRAME      = TEME
TIME_SYSTEM    = UTC
MEAN_ELEMENT_THEORY = SGP/SGP4

EPOCH          = 2026-01-13T03:14:51.452736
MEAN_MOTION    = 14.18251988
ECCENTRICITY   = .0037794
INCLINATION    = 98.6727
RA_OF_ASC_NODE = 58.7064
ARG_OF_PERICENTER = 143.5261
MEAN_ANOMALY   = 235.2841

EPHEMERIS_TYPE = 0
CLASSIFICATION_TYPE = U
NORAD_CAT_ID   = 25732
ELEMENT_SET_NO = 999
REV_AT_EPOCH   = 38029
BSTAR          = .34458E-4
MEAN_MOTION_DOT = .29E-6
MEAN_MOTION_DDOT = 0

CCSDS_OMM_VERS = 2.0
CREATION_DATE  = 
ORIGINATOR     = 

OBJECT_NAME    = OKEAN-O
OBJECT_ID      = 1999-039A
CENTER_NAME    = EARTH
REF_FRAME      = TEME
TIME_SYSTEM    = UTC
MEAN_ELEMENT_THEORY = SGP/SGP4

EPOCH          = 2026-01-13T02:07:11.407008
MEAN_MOTION    = 14.80224821
ECCENTRICITY   = .0001652
INCLINATION    = 97.9557
RA_OF_ASC_NODE = 73.5125
ARG_OF_PERICENTER = 109.3285
MEAN_ANOMALY   = 250.8105

EPHEMERIS_TYPE = 0
CLASSIFICATION_TYPE = U
NORAD_CAT_ID   = 25860
ELEMENT_SET_NO = 999
REV_AT_EPOCH   = 42616
BSTAR          = .89966E-4
MEAN_MOTION_DOT = .632E-5
MEAN_MOTION_DDOT = 0

CCSDS_OMM_VERS = 2.0
CREATION_DATE  = 
ORIGINATOR     = 

OBJECT_NAME    = SL-16 R/B
OBJECT_ID      = 1999-039B
CENTER_NAME    = EARTH
REF_FRAME      = TEME
TIME_SYSTEM    = UTC
MEAN_ELEMENT_THEORY = SGP/SGP4

EPOCH          = 2026-01-13T02:54:07.591680
MEAN_MOTION    = 14.81639381
ECCENTRICITY   = .0016146
INCLINATION    = 98.0080
RA_OF_ASC_NODE = 72.2674
ARG_OF_PERICENTER = 79.0279
MEAN_ANOMALY   = 281.2749

EPHEMERIS_TYPE = 0
CLASSIFICATION_TYPE = U
NORAD_CAT_ID   = 25861
ELEMENT_SET_NO = 999
REV_AT_EPOCH   = 42863
BSTAR          = .65487E-4
MEAN_MOTION_DOT = .462E-5
MEAN_MOTION_DDOT = 0

CCSDS_OMM_VERS = 2.0
CREATION_DATE  = 
ORIGINATOR     = 

OBJECT_NAME    = DELTA 2 R/B
OBJECT_ID      = 1999-041E
CENTER_NAME    = EARTH
REF_FRAME      = TEME
TIME_SYSTEM    = UTC
MEAN_ELEMENT_THEORY = SGP/SGP4

EPOCH          = 2026-01-12T19:07:42.830400
MEAN_MOTION    = 14.11541304
ECCENTRICITY   = .05037076
INCLINATION    = 51.7604
RA_OF_ASC_NODE = 164.4585
ARG_OF_PERICENTER = 183.3160
MEAN_ANOMALY   = 176.4385

EPHEMERIS_TYPE = 0
CLASSIFICATION_TYPE = U
NORAD_CAT_ID   = 25876
ELEMENT_SET_NO = 999
REV_AT_EPOCH   = 35513
BSTAR          = .52277589E-3
MEAN_MOTION_DOT = .3018E-4
MEAN_MOTION_DDOT = 0

CCSDS_OMM_VERS = 2.0
CREATION_DATE  = 
ORIGINATOR     = 

OBJECT_NAME    = HELIOS 1B
OBJECT_ID      = 1999-064A
CENTER_NAME    = EARTH
REF_FRAME      = TEME
TIME_SYSTEM    = UTC
MEAN_ELEMENT_THEORY = SGP/SGP4

EPOCH          = 2026-01-13T03:40:47.502048
MEAN_MOTION    = 14.87433136
ECCENTRICITY   = .0000484
INCLINATION    = 98.1746
RA_OF_ASC_NODE = 273.7523
ARG_OF_PERICENTER = 130.7462
MEAN_ANOMALY   = 229.3795

EPHEMERIS_TYPE = 0
CLASSIFICATION_TYPE = U
NORAD_CAT_ID   = 25977
ELEMENT_SET_NO = 999
REV_AT_EPOCH   = 67700
BSTAR          = .17458E-3
MEAN_MOTION_DOT = .1522E-4
MEAN_MOTION_DDOT = 0

CCSDS_OMM_VERS = 2.0
CREATION_DATE  = 
ORIGINATOR     = 

OBJECT_NAME    = TERRA
OBJECT_ID      = 1999-068A
CENTER_NAME    = EARTH
REF_FRAME      = TEME
TIME_SYSTEM    = UTC
MEAN_ELEMENT_THEORY = SGP/SGP4

EPOCH          = 2026-01-13T03:57:59.004864
MEAN_MOTION    = 14.60942902
ECCENTRICITY   = .0002488
INCLINATION    = 97.9704
RA_OF_ASC_NODE = 68.6895
ARG_OF_PERICENTER = 28.4409
MEAN_ANOMALY   = 0.3199

EPHEMERIS_TYPE = 0
CLASSIFICATION_TYPE = U
NORAD_CAT_ID   = 25994
ELEMENT_SET_NO = 999
REV_AT_EPOCH   = 38697
BSTAR          = .8492E-4
MEAN_MOTION_DOT = .371E-5
MEAN_MOTION_DDOT = 0

CCSDS_OMM_VERS = 2.0
CREATION_DATE  = 
ORIGINATOR     = 

OBJECT_NAME    = SL-16 R/B
OBJECT_ID      = 2000-006B
CENTER_NAME    = EARTH
REF_FRAME      = TEME
TIME_SYSTEM    = UTC
MEAN_ELEMENT_THEORY = SGP/SGP4

EPOCH          = 2026-01-12T23:39:25.355232
MEAN_MOTION    = 14.15814558
ECCENTRICITY   = .0018991
INCLINATION    = 71.0005
RA_OF_ASC_NODE = 214.9603
ARG_OF_PERICENTER = 266.8399
MEAN_ANOMALY   = 93.0551

EPHEMERIS_TYPE = 0
CLASSIFICATION_TYPE = U
NORAD_CAT_ID   = 26070
ELEMENT_SET_NO = 999
REV_AT_EPOCH   = 34067
BSTAR          = -.99787E-4
MEAN_MOTION_DOT = -.244E-5
MEAN_MOTION_DDOT = 0

CCSDS_OMM_VERS = 2.0
CREATION_DATE  = 
ORIGINATOR     = 

OBJECT_NAME    = TITAN 4B R/B
OBJECT_ID      = 2000-047B
CENTER_NAME    = EARTH
REF_FRAME      = TEME
TIME_SYSTEM    = UTC
MEAN_ELEMENT_THEORY = SGP/SGP4

EPOCH          = 2026-01-13T02:19:15.796704
MEAN_MOTION    = 15.09040397
ECCENTRICITY   = .0037085
INCLINATION    = 67.9874
RA_OF_ASC_NODE = 196.7722
ARG_OF_PERICENTER = 105.6179
MEAN_ANOMALY   = 254.9067

EPHEMERIS_TYPE = 0
CLASSIFICATION_TYPE = U
NORAD_CAT_ID   = 26474
ELEMENT_SET_NO = 999
REV_AT_EPOCH   = 38452
BSTAR          = .19263E-3
MEAN_MOTION_DOT = .2968E-4
MEAN_MOTION_DDOT = 0

CCSDS_OMM_VERS = 2.0
CREATION_DATE  = 
ORIGINATOR     = 

OBJECT_NAME    = ENVISAT
OBJECT_ID      = 2002-009A
CENTER_NAME    = EARTH
REF_FRAME      = TEME
TIME_SYSTEM    = UTC
MEAN_ELEMENT_THEORY = SGP/SGP4

EPOCH          = 2026-01-13T02:47:02.082048
MEAN_MOTION    = 14.39012777
ECCENTRICITY   = .000114
INCLINATION    = 98.3641
RA_OF_ASC_NODE = 328.0684
ARG_OF_PERICENTER = 91.5198
MEAN_ANOMALY   = 279.4540

EPHEMERIS_TYPE = 0
CLASSIFICATION_TYPE = U
NORAD_CAT_ID   = 27386
ELEMENT_SET_NO = 999
REV_AT_EPOCH   = 25118
BSTAR          = .43959E-4
MEAN_MOTION_DOT = .93E-6
MEAN_MOTION_DDOT = 0

