SL-16 R/B               
1 25400U 98043G   26013.09172816  .00000045  00000+0  37938-4 0  9993
2 25400  98.8166 326.0923 0009929 169.6544 190.4841 14.26034224431069
SL-16 R/B               
1 25407U 98045B   26013.12607654 -.00000026  00000+0  10770-4 0  9994
2 25407  71.0120 298.4224 0005331 119.6087 240.5568 14.16180001419237
ISS (ZARYA)             
1 25544U 98067A   26012.95096218  .00007414  00000+0  14125-3 0  9992
2 25544  51.6330 347.9568 0007716  11.8640 348.2529 15.49263082547697
CZ-4B R/B               
1 25732U 99025C   26013.13531774  .00000029  00000+0  34458-4 0  9995
2 25732  98.6727  58.7064 0037794 143.5261 235.2841 14.18251988380296
OKEAN-O                 
1 25860U 99039A   26013.08832647  .00000632  00000+0  89966-4 0  9993
2 25860  97.9557  73.5125 0001652 109.3285 250.8105 14.80224821426162
SL-16 R/B               
1 25861U 99039B   26013.12092120  .00000462  00000+0  65487-4 0  9996
2 25861  98.0080  72.2674 0016146  79.0279 281.2749 14.81639381428639
DELTA 2 R/B             
1 25876U 99041E   26012.79702350  .00003018  00000+0  52278-3 0  9993
2 25876  51.7604 164.4585 0503707 183.3160 176.4385 14.11541304355135
HELIOS 1B               
1 25977U 99064A   26013.15332757  .00001522  00000+0  17458-3 0  9990
2 25977  98.1746 273.7523 0000484 130.7462 229.3795 14.87433136677002
TERRA                   
1 25994U 99068A   26013.16526626  .00000371  00000+0  84920-4 0  9994
2 25994  97.9704  68.6895 0002488  28.4409   0.3199 14.60942902386970
SL-16 R/B               
1 26070U 00006B   26012.98571013 -.00000244  00000+0 -99787-4 0  9991
2 26070  71.0005 214.9603 0018991 266.8399  93.0551 14.15814558340671
TITAN 4B R/B            
1 26474U 00047B   26013.09671061  .00002968  00000+0  19263-3 0  9994
2 26474  67.9874 196.7722 0037085 105.6179 254.9067 15.09040397384525
ENVISAT                 
1 27386U 02009A   26013.11599632  .00000093  00000+0  43959-4 0  9990
2 27386  98.3641 328.0684 0001140  91.5198 279.4540 14.39012777251188
